STARLINK-34395          
1 64668U 25139E   26068.44333642  .00032394  00000+0  11006-2 0  9991
2 64668  53.1579 128.3788 0001279  82.1389 277.9757 15.30215620 40248
STARLINK-34394          
1 64669U 25139F   26068.56446304  .00024710  00000+0  84321-3 0  9999
2 64669  53.1579 127.7150 0000850  89.6476 270.4622 15.30216501 40268
STARLINK-34287          
1 64670U 25139G   26068.42750367  .00020883  00000+0  71520-3 0  9997
2 64670  53.1591 128.2814 0001543  80.1154 280.0021 15.30200509 40245
STARLINK-34365          
1 64671U 25139H   26068.44965946  .00026197  00000+0  89298-3 0  9996
2 64671  53.1567 128.4161 0001097  93.2285 266.8841 15.30218259 40300
STARLINK-34442          
1 64672U 25139J   26068.54442174  .00015730  00000+0  54284-3 0  9999
2 64672  53.1601 127.5866 0001346  68.2314 291.8830 15.30154393 40263
STARLINK-34288          
1 64673U 25139K   26068.55074838  .00026758  00000+0  91259-3 0  9994
2 64673  53.1606 127.6292 0001552  69.0226 291.0941 15.30189984 40262
STARLINK-34539          
1 64674U 25139L   26068.54124975  .00016172  00000+0  55720-3 0  9994
2 64674  53.1596 127.5676 0001360  79.8701 280.2453 15.30185272 40163
STARLINK-34590          
1 64675U 25139M   26068.52553120  .00027857  00000+0  94942-3 0  9992
2 64675  53.1577 128.1794 0001255  77.9254 282.1887 15.30190641 40254
STARLINK-34573          
1 64676U 25139N   26068.40111997  .00016139  00000+0  55580-3 0  9998
2 64676  53.1576 128.1133 0001130 100.9056 259.2072 15.30201397 40241
STARLINK-34605          
1 64677U 25139P   26068.50544560  .00008905  00000+0  31299-3 0  9999
2 64677  53.1583 117.4173 0000812  70.4883 289.6206 15.30141117 40407
STARLINK-34525          
1 64678U 25139Q   26068.45493914  .00013067  00000+0  45252-3 0  9999
2 64678  53.1578 128.4477 0001149  87.3536 272.7596 15.30199814 40241
STARLINK-34489          
1 64679U 25139R   26068.44860882  .00024079  00000+0  82255-3 0  9990
2 64679  53.1578 128.4109 0001342  81.6041 278.5112 15.30197442 40240
STARLINK-34502          
1 64680U 25139S   26068.53702316  .00023331  00000+0  79722-3 0  9994
2 64680  53.1590 127.5402 0001367  86.7466 273.3692 15.30205846 40262
STARLINK-34553          
1 64681U 25139T   26068.66132510  .00031642  00000+0  10760-2 0  9992
2 64681  53.1580 126.8904 0001332  73.3241 286.7905 15.30197010 40286
STARLINK-34551          
1 64682U 25139U   26068.50862343  .00026585  00000+0  90664-3 0  9992
2 64682  53.1592 117.4255 0001371  82.1664 277.9492 15.30194616 40401
STARLINK-34550          
1 64683U 25139V   26068.42539114  .00014184  00000+0  49018-3 0  9990
2 64683  53.1594 128.2629 0001280  81.1500 278.9645 15.30193759 40246
